ONEWEB-0298             
1 49087U 21075N   25247.21648912 -.00000003  00000+0 -40971-4 0  9995
2 49087  87.9027  62.7659 0001788  89.0110 271.1226 13.17650616195968
ONEWEB-0299             
1 49088U 21075P   25247.21803626  .00000076  00000+0  16369-3 0  9992
2 49088  87.9034  62.7212 0001963  92.5652 267.5704 13.17648981195947
ONEWEB-0300             
1 49089U 21075Q   25247.21460239  .00000405  00000+0  10896-2 0  9996
2 49089  87.8877  47.4730 0001850  83.2602 276.8737 13.12441347197699
ONEWEB-0301             
1 49090U 21075R   25247.19838124  .00000445  00000+0  12015-2 0  9996
2 49090  87.8878  47.4809 0001864  80.3564 279.7775 13.12443667197050
ONEWEB-0302             
1 49091U 21075S   25247.18539269 -.00000012  00000+0 -68298-4 0  9992
2 49091  87.8883  47.4893 0001591 105.8396 254.2908 13.12444624197031
ONEWEB-0304             
1 49092U 21075T   25247.19272528  .00000082  00000+0  17852-3 0  9990
2 49092  87.9035  62.7572 0001839  94.3696 265.7646 13.17649393195912
ONEWEB-0305             
1 49093U 21075U   25247.18597131  .00000035  00000+0  57228-4 0  9990
2 49093  87.9040  62.7351 0002094  99.1935 260.9433 13.17651316195949
ONEWEB-0308             
1 49094U 21075V   25247.17890895 -.00000124  00000+0 -38097-3 0  9996
2 49094  87.8883  47.4823 0001706  92.9440 267.1884 13.12444484197042
ONEWEB-0309             
1 49095U 21075W   25247.18934047  .00000098  00000+0  21951-3 0  9995
2 49095  87.9033  62.7517 0001500 103.7499 256.3800 13.17648337195918
ONEWEB-0310             
1 49096U 21075X   25247.19350733 -.00001419  00000+0 -39795-2 0  9995
2 49096  87.8876  47.5248 0001568  98.6302 261.5005 13.12452536197673
ONEWEB-0311             
1 49097U 21075Y   25247.19609601  .00000029  00000+0  42607-4 0  9999
2 49097  87.9030  62.7486 0002121  95.6076 264.5298 13.17649335195968
ONEWEB-0312             
1 49098U 21075Z   25247.21128284  .00000091  00000+0  20153-3 0  9996
2 49098  87.9028  62.7779 0001858 102.0887 258.0453 13.17648173195948
ONEWEB-0313             
1 49099U 21075AA  25246.98841108  .00000047  00000+0  86799-4 0  9997
2 49099  87.9021  62.8344 0001792  92.4495 267.6842 13.17648582195903
ONEWEB-0314             
1 49100U 21075AB  25247.18259717  .00000070  00000+0  14605-3 0  9994
2 49100  87.9040  62.7325 0001911 101.1053 259.0294 13.17648531195906
ONEWEB-0315             
1 49101U 21075AC  25247.16754941 -.00000418  00000+0 -11974-2 0  9995
2 49101  87.8878  47.4752 0002133  93.0708 267.0665 13.12442073197655
ONEWEB-0316             
1 49102U 21075AD  25247.10444854 -.00000024  00000+0 -94182-4 0  9996
2 49102  87.9173  32.2774 0002008  94.4206 265.7156 13.18684590199504
ONEWEB-0317             
1 49103U 21075AE  25247.16106553 -.00000322  00000+0 -93076-3 0  9995
2 49103  87.8883  47.4907 0000944 104.6570 255.4663 13.12442817197676
