[{"OBJECT_NAME":"ONEWEB-0298","OBJECT_ID":"2021-075N","EPOCH":"2025-09-04T05:11:44.659968","MEAN_MOTION":13.17650616,"ECCENTRICITY":0.00017886,"INCLINATION":87.9027,"RA_OF_ASC_NODE":62.7659,"ARG_OF_PERICENTER":89.011,"MEAN_ANOMALY":271.1226,"EPHEMERIS_TYPE":0,"CLASSIFICATION_TYPE":"U","NORAD_CAT_ID":49087,"ELEMENT_SET_NO":999,"REV_AT_EPOCH":19596,"BSTAR":-4.0971345e-5,"MEAN_MOTION_DOT":-3.0e-8,"MEAN_MOTION_DDOT":0},{"OBJECT_NAME":"ONEWEB-0299","OBJECT_ID":"2021-075P","EPOCH":"2025-09-04T05:13:58.332864","MEAN_MOTION":13.17648981,"ECCENTRICITY":0.0001963,"INCLINATION":87.9034,"RA_OF_ASC_NODE":62.7212,"ARG_OF_PERICENTER":92.5652,"MEAN_ANOMALY":267.5704,"EPHEMERIS_TYPE":0,"CLASSIFICATION_TYPE":"U","NORAD_CAT_ID":49088,"ELEMENT_SET_NO":999,"REV_AT_EPOCH":19594,"BSTAR":0.00016368907,"MEAN_MOTION_DOT":7.6e-7,"MEAN_MOTION_DDOT":0},{"OBJECT_NAME":"ONEWEB-0300","OBJECT_ID":"2021-075Q","EPOCH":"2025-09-04T05:09:01.646496","MEAN_MOTION":13.12441347,"ECCENTRICITY":0.000185,"INCLINATION":87.8877,"RA_OF_ASC_NODE":47.473,"ARG_OF_PERICENTER":83.2602,"MEAN_ANOMALY":276.8737,"EPHEMERIS_TYPE":0,"CLASSIFICATION_TYPE":"U","NORAD_CAT_ID":49089,"ELEMENT_SET_NO":999,"REV_AT_EPOCH":19769,"BSTAR":0.0010896218,"MEAN_MOTION_DOT":4.05e-6,"MEAN_MOTION_DDOT":0},{"OBJECT_NAME":"ONEWEB-0301","OBJECT_ID":"2021-075R","EPOCH":"2025-09-04T04:45:40.139136","MEAN_MOTION":13.12443667,"ECCENTRICITY":0.00018641,"INCLINATION":87.8878,"RA_OF_ASC_NODE":47.4809,"ARG_OF_PERICENTER":80.3564,"MEAN_ANOMALY":279.7775,"EPHEMERIS_TYPE":0,"CLASSIFICATION_TYPE":"U","NORAD_CAT_ID":49090,"ELEMENT_SET_NO":999,"REV_AT_EPOCH":19705,"BSTAR":0.0012014647,"MEAN_MOTION_DOT":4.45e-6,"MEAN_MOTION_DDOT":0},{"OBJECT_NAME":"ONEWEB-0302","OBJECT_ID":"2021-075S","EPOCH":"2025-09-04T04:26:57.928416","MEAN_MOTION":13.12444624,"ECCENTRICITY":0.00015915,"INCLINATION":87.8883,"RA_OF_ASC_NODE":47.4893,"ARG_OF_PERICENTER":105.8396,"MEAN_ANOMALY":254.2908,"EPHEMERIS_TYPE":0,"CLASSIFICATION_TYPE":"U","NORAD_CAT_ID":49091,"ELEMENT_SET_NO":999,"REV_AT_EPOCH":19703,"BSTAR":-6.8298333e-5,"MEAN_MOTION_DOT":-1.2e-7,"MEAN_MOTION_DDOT":0},{"OBJECT_NAME":"ONEWEB-0304","OBJECT_ID":"2021-075T","EPOCH":"2025-09-04T04:37:31.464192","MEAN_MOTION":13.17649393,"ECCENTRICITY":0.00018394,"INCLINATION":87.9035,"RA_OF_ASC_NODE":62.7572,"ARG_OF_PERICENTER":94.3696,"MEAN_ANOMALY":265.7646,"EPHEMERIS_TYPE":0,"CLASSIFICATION_TYPE":"U","NORAD_CAT_ID":49092,"ELEMENT_SET_NO":999,"REV_AT_EPOCH":19591,"BSTAR":0.00017851737,"MEAN_MOTION_DOT":8.2e-7,"MEAN_MOTION_DDOT":0},{"OBJECT_NAME":"ONEWEB-0305","OBJECT_ID":"2021-075U","EPOCH":"2025-09-04T04:27:47.921184","MEAN_MOTION":13.17651316,"ECCENTRICITY":0.00020942,"INCLINATION":87.904,"RA_OF_ASC_NODE":62.7351,"ARG_OF_PERICENTER":99.1935,"MEAN_ANOMALY":260.9433,"EPHEMERIS_TYPE":0,"CLASSIFICATION_TYPE":"U","NORAD_CAT_ID":49093,"ELEMENT_SET_NO":999,"REV_AT_EPOCH":19594,"BSTAR":5.7227945e-5,"MEAN_MOTION_DOT":3.5e-7,"MEAN_MOTION_DDOT":0},{"OBJECT_NAME":"ONEWEB-0308","OBJECT_ID":"2021-075V","EPOCH":"2025-09-04T04:17:37.733280","MEAN_MOTION":13.12444484,"ECCENTRICITY":0.00017061,"INCLINATION":87.8883,"RA_OF_ASC_NODE":47.4823,"ARG_OF_PERICENTER":92.944,"MEAN_ANOMALY":267.1884,"EPHEMERIS_TYPE":0,"CLASSIFICATION_TYPE":"U","NORAD_CAT_ID":49094,"ELEMENT_SET_NO":999,"REV_AT_EPOCH":19704,"BSTAR":-0.00038097093,"MEAN_MOTION_DOT":-1.24e-6,"MEAN_MOTION_DDOT":0},{"OBJECT_NAME":"ONEWEB-0309","OBJECT_ID":"2021-075W","EPOCH":"2025-09-04T04:32:39.016608","MEAN_MOTION":13.17648337,"ECCENTRICITY":0.00015001,"INCLINATION":87.9033,"RA_OF_ASC_NODE":62.7517,"ARG_OF_PERICENTER":103.7499,"MEAN_ANOMALY":256.38,"EPHEMERIS_TYPE":0,"CLASSIFICATION_TYPE":"U","NORAD_CAT_ID":49095,"ELEMENT_SET_NO":999,"REV_AT_EPOCH":19591,"BSTAR":0.00021950548,"MEAN_MOTION_DOT":9.8e-7,"MEAN_MOTION_DDOT":0},{"OBJECT_NAME":"ONEWEB-0310","OBJECT_ID":"2021-075X","EPOCH":"2025-09-04T04:38:39.033312","MEAN_MOTION":13.12452536,"ECCENTRICITY":0.00015682,"INCLINATION":87.8876,"RA_OF_ASC_NODE":47.5248,"ARG_OF_PERICENTER":98.6302,"MEAN_ANOMALY":261.5005,"EPHEMERIS_TYPE":0,"CLASSIFICATION_TYPE":"U","NORAD_CAT_ID":49096,"ELEMENT_SET_NO":999,"REV_AT_EPOCH":19767,"BSTAR":-0.0039795196,"MEAN_MOTION_DOT":-1.419e-5,"MEAN_MOTION_DDOT":0},{"OBJECT_NAME":"ONEWEB-0311","OBJECT_ID":"2021-075Y","EPOCH":"2025-09-04T04:42:22.695264","MEAN_MOTION":13.17649335,"ECCENTRICITY":0.00021219,"INCLINATION":87.903,"RA_OF_ASC_NODE":62.7486,"ARG_OF_PERICENTER":95.6076,"MEAN_ANOMALY":264.5298,"EPHEMERIS_TYPE":0,"CLASSIFICATION_TYPE":"U","NORAD_CAT_ID":49097,"ELEMENT_SET_NO":999,"REV_AT_EPOCH":19596,"BSTAR":4.260738e-5,"MEAN_MOTION_DOT":2.9e-7,"MEAN_MOTION_DDOT":0},{"OBJECT_NAME":"ONEWEB-0312","OBJECT_ID":"2021-075Z","EPOCH":"2025-09-04T05:04:14.837376","MEAN_MOTION":13.17648173,"ECCENTRICITY":0.00018583,"INCLINATION":87.9028,"RA_OF_ASC_NODE":62.7779,"ARG_OF_PERICENTER":102.0887,"MEAN_ANOMALY":258.0453,"EPHEMERIS_TYPE":0,"CLASSIFICATION_TYPE":"U","NORAD_CAT_ID":49098,"ELEMENT_SET_NO":999,"REV_AT_EPOCH":19594,"BSTAR":0.00020153366,"MEAN_MOTION_DOT":9.1e-7,"MEAN_MOTION_DDOT":0},{"OBJECT_NAME":"ONEWEB-0313","OBJECT_ID":"2021-075AA","EPOCH":"2025-09-03T23:43:18.717312","MEAN_MOTION":13.17648582,"ECCENTRICITY":0.00017924,"INCLINATION":87.9021,"RA_OF_ASC_NODE":62.8344,"ARG_OF_PERICENTER":92.4495,"MEAN_ANOMALY":267.6842,"EPHEMERIS_TYPE":0,"CLASSIFICATION_TYPE":"U","NORAD_CAT_ID":49099,"ELEMENT_SET_NO":999,"REV_AT_EPOCH":19590,"BSTAR":8.6799279e-5,"MEAN_MOTION_DOT":4.7e-7,"MEAN_MOTION_DDOT":0},{"OBJECT_NAME":"ONEWEB-0314","OBJECT_ID":"2021-075AB","EPOCH":"2025-09-04T04:22:56.395488","MEAN_MOTION":13.17648531,"ECCENTRICITY":0.00019118,"INCLINATION":87.904,"RA_OF_ASC_NODE":62.7325,"ARG_OF_PERICENTER":101.1053,"MEAN_ANOMALY":259.0294,"EPHEMERIS_TYPE":0,"CLASSIFICATION_TYPE":"U","NORAD_CAT_ID":49100,"ELEMENT_SET_NO":999,"REV_AT_EPOCH":19590,"BSTAR":0.00014605389,"MEAN_MOTION_DOT":7.0e-7,"MEAN_MOTION_DDOT":0},{"OBJECT_NAME":"ONEWEB-0315","OBJECT_ID":"2021-075AC","EPOCH":"2025-09-04T04:01:16.269024","MEAN_MOTION":13.12442073,"ECCENTRICITY":0.0002133,"INCLINATION":87.8878,"RA_OF_ASC_NODE":47.4752,"ARG_OF_PERICENTER":93.0708,"MEAN_ANOMALY":267.0665,"EPHEMERIS_TYPE":0,"CLASSIFICATION_TYPE":"U","NORAD_CAT_ID":49101,"ELEMENT_SET_NO":999,"REV_AT_EPOCH":19765,"BSTAR":-0.0011974486,"MEAN_MOTION_DOT":-4.18e-6,"MEAN_MOTION_DDOT":0},{"OBJECT_NAME":"ONEWEB-0316","OBJECT_ID":"2021-075AD","EPOCH":"2025-09-04T02:30:24.353856","MEAN_MOTION":13.1868459,"ECCENTRICITY":0.00020088,"INCLINATION":87.9173,"RA_OF_ASC_NODE":32.2774,"ARG_OF_PERICENTER":94.4206,"MEAN_ANOMALY":265.7156,"EPHEMERIS_TYPE":0,"CLASSIFICATION_TYPE":"U","NORAD_CAT_ID":49102,"ELEMENT_SET_NO":999,"REV_AT_EPOCH":19950,"BSTAR":-9.4182354e-5,"MEAN_MOTION_DOT":-2.4e-7,"MEAN_MOTION_DDOT":0},{"OBJECT_NAME":"ONEWEB-0317","OBJECT_ID":"2021-075AE","EPOCH":"2025-09-04T03:51:56.061792","MEAN_MOTION":13.12442817,"ECCENTRICITY":9.442e-5,"INCLINATION":87.8883,"RA_OF_ASC_NODE":47.4907,"ARG_OF_PERICENTER":104.657,"MEAN_ANOMALY":255.4663,"EPHEMERIS_TYPE":0,"CLASSIFICATION_TYPE":"U","NORAD_CAT_ID":49103,"ELEMENT_SET_NO":999,"REV_AT_EPOCH":19767,"BSTAR":-0.00093076179,"MEAN_MOTION_DOT":-3.22e-6,"MEAN_MOTION_DDOT":0}]
